STARLINK-2583           
1 48439U 21040M   26068.53294081  .00013766  00000+0  47580-3 0  9998
2 48439  53.1587 178.8653 0001113  87.8466 272.2662 15.30216118266652
BANDWAGON-2 OBJECT D    
1 62380U 24247D   26068.52261193  .00011259  00000+0  40119-3 0  9994
2 62380  44.9954 115.6710 0003488 351.1453   8.9368 15.29076102 67732
